{
  "norad_id": 59758,
  "name": "STARLINK-11105 [DTC]",
  "history": [
    {
      "epoch": "2026-03-28T19:07:02.588736Z",
      "apogee_km": 360.76820710846914,
      "perigee_km": 358.6699039756513,
      "latitude_deg": 7.163884673312099e-05,
      "longitude_deg": -0.8348920516080919,
      "height_km": 360.75497126976444,
      "semi_major_axis_km": 6737.85605554206,
      "eccentricity": 0.00015571,
      "inclination_deg": 53.1601,
      "raan_deg": 112.1377,
      "arg_perigee_deg": 96.7257,
      "mean_anomaly_deg": 263.3939,
      "mean_motion_rev_day": 15.69712689
    }
  ]
}